[
  {
    "OBJECT_NAME": "STARLINK-31241",
    "OBJECT_ID": "24038Y",
    "EPOCH": "2025-11-11T01:35:23.271648",
    "MEAN_MOTION": 15.2758321,
    "ECCENTRICITY": 0.0003702,
    "INCLINATION": 43.0018,
    "RA_OF_ASC_NODE": 333.7195,
    "ARG_OF_PERICENTER": 291.8091,
    "MEAN_ANOMALY": 68.2367,
    "EPHEMERIS_TYPE": 0,
    "CLASSIFICATION_TYPE": "U",
    "NORAD_CAT_ID": 59045,
    "ELEMENT_SET_NO": 999,
    "REV_AT_EPOCH": 9671,
    "BSTAR": 0.00032865,
    "MEAN_MOTION_DOT": 8.794e-05,
    "MEAN_MOTION_DDOT": 0.0,
    "TLE_LINE1": "1 59045U 24038Y   25315.06624157  .00008794  00000+0  32865-3 0  9991",
    "TLE_LINE2": "2 59045  43.0018 333.7195 0003702 291.8091  68.2367 15.27583210 96713",
    "COMMENT": "Grouped by shell and plane from TLE"
  },
  {
    "OBJECT_NAME": "STARLINK-31205",
    "OBJECT_ID": "24038Z",
    "EPOCH": "2025-11-11T07:40:53.067360",
    "MEAN_MOTION": 15.2761031,
    "ECCENTRICITY": 0.0001081,
    "INCLINATION": 43.0017,
    "RA_OF_ASC_NODE": 332.1842,
    "ARG_OF_PERICENTER": 259.7878,
    "MEAN_ANOMALY": 100.2852,
    "EPHEMERIS_TYPE": 0,
    "CLASSIFICATION_TYPE": "U",
    "NORAD_CAT_ID": 59046,
    "ELEMENT_SET_NO": 999,
    "REV_AT_EPOCH": 9669,
    "BSTAR": 0.00046466000000000004,
    "MEAN_MOTION_DOT": 0.00012558,
    "MEAN_MOTION_DDOT": 0.0,
    "TLE_LINE1": "1 59046U 24038Z   25315.32005865  .00012558  00000+0  46466-3 0  9995",
    "TLE_LINE2": "2 59046  43.0017 332.1842 0001081 259.7878 100.2852 15.27610310 96694",
    "COMMENT": "Grouped by shell and plane from TLE"
  },
  {
    "OBJECT_NAME": "STARLINK-31496",
    "OBJECT_ID": "24046L",
    "EPOCH": "2025-11-11T07:26:30.867072",
    "MEAN_MOTION": 15.30201669,
    "ECCENTRICITY": 0.0001279,
    "INCLINATION": 53.1608,
    "RA_OF_ASC_NODE": 332.5269,
    "ARG_OF_PERICENTER": 93.0094,
    "MEAN_ANOMALY": 267.1053,
    "EPHEMERIS_TYPE": 0,
    "CLASSIFICATION_TYPE": "U",
    "NORAD_CAT_ID": 59211,
    "ELEMENT_SET_NO": 999,
    "REV_AT_EPOCH": 9509,
    "BSTAR": 0.00015785,
    "MEAN_MOTION_DOT": 4.319e-05,
    "MEAN_MOTION_DDOT": 0.0,
    "TLE_LINE1": "1 59211U 24046L   25315.31007948  .00004319  00000+0  15785-3 0  9997",
    "TLE_LINE2": "2 59211  53.1608 332.5269 0001279  93.0094 267.1053 15.30201669 95097",
    "COMMENT": "Grouped by shell and plane from TLE"
  },
  {
    "OBJECT_NAME": "STARLINK-31655",
    "OBJECT_ID": "24050D",
    "EPOCH": "2025-11-11T07:21:32.102784",
    "MEAN_MOTION": 15.36492469,
    "ECCENTRICITY": 0.0006859,
    "INCLINATION": 53.1582,
    "RA_OF_ASC_NODE": 332.0403,
    "ARG_OF_PERICENTER": 63.5626,
    "MEAN_ANOMALY": 296.608,
    "EPHEMERIS_TYPE": 0,
    "CLASSIFICATION_TYPE": "U",
    "NORAD_CAT_ID": 59257,
    "ELEMENT_SET_NO": 999,
    "REV_AT_EPOCH": 9296,
    "BSTAR": 0.0013428000000000001,
    "MEAN_MOTION_DOT": 0.00048466,
    "MEAN_MOTION_DDOT": 0.0,
    "TLE_LINE1": "1 59257U 24050D   25315.30662156  .00048466  00000+0  13428-2 0  9991",
    "TLE_LINE2": "2 59257  53.1582 332.0403 0006859  63.5626 296.6080 15.36492469 92961",
    "COMMENT": "Grouped by shell and plane from TLE"
  },
  {
    "OBJECT_NAME": "STARLINK-31581",
    "OBJECT_ID": "24068V",
    "EPOCH": "2025-11-11T03:16:14.855520",
    "MEAN_MOTION": 15.27599865,
    "ECCENTRICITY": 0.0001039,
    "INCLINATION": 43.0042,
    "RA_OF_ASC_NODE": 336.9257,
    "ARG_OF_PERICENTER": 256.0195,
    "MEAN_ANOMALY": 104.0541,
    "EPHEMERIS_TYPE": 0,
    "CLASSIFICATION_TYPE": "U",
    "NORAD_CAT_ID": 59474,
    "ELEMENT_SET_NO": 999,
    "REV_AT_EPOCH": 9047,
    "BSTAR": 0.00017275,
    "MEAN_MOTION_DOT": 4.497e-05,
    "MEAN_MOTION_DDOT": 0.0,
    "TLE_LINE1": "1 59474U 24068V   25315.13628305  .00004497  00000+0  17275-3 0  9991",
    "TLE_LINE2": "2 59474  43.0042 336.9257 0001039 256.0195 104.0541 15.27599865 90472",
    "COMMENT": "Grouped by shell and plane from TLE"
  },
  {
    "OBJECT_NAME": "STARLINK-31834",
    "OBJECT_ID": "24088P",
    "EPOCH": "2025-11-11T05:39:27.576576",
    "MEAN_MOTION": 15.30191306,
    "ECCENTRICITY": 9.86e-05,
    "INCLINATION": 53.1611,
    "RA_OF_ASC_NODE": 330.3064,
    "ARG_OF_PERICENTER": 92.5554,
    "MEAN_ANOMALY": 267.556,
    "EPHEMERIS_TYPE": 0,
    "CLASSIFICATION_TYPE": "U",
    "NORAD_CAT_ID": 59721,
    "ELEMENT_SET_NO": 999,
    "REV_AT_EPOCH": 8572,
    "BSTAR": 2.8934e-05,
    "MEAN_MOTION_DOT": 4.98e-06,
    "MEAN_MOTION_DDOT": 0.0,
    "TLE_LINE1": "1 59721U 24088P   25315.23573584  .00000498  00000+0  28934-4 0  9999",
    "TLE_LINE2": "2 59721  53.1611 330.3064 0000986  92.5554 267.5560 15.30191306 85727",
    "COMMENT": "Grouped by shell and plane from TLE"
  },
  {
    "OBJECT_NAME": "STARLINK-31843",
    "OBJECT_ID": "24088Q",
    "EPOCH": "2025-11-11T07:28:42.444768",
    "MEAN_MOTION": 15.30189363,
    "ECCENTRICITY": 0.0001451,
    "INCLINATION": 53.1631,
    "RA_OF_ASC_NODE": 330.0692,
    "ARG_OF_PERICENTER": 94.4775,
    "MEAN_ANOMALY": 265.6392,
    "EPHEMERIS_TYPE": 0,
    "CLASSIFICATION_TYPE": "U",
    "NORAD_CAT_ID": 59722,
    "ELEMENT_SET_NO": 999,
    "REV_AT_EPOCH": 8555,
    "BSTAR": 0.00011600000000000001,
    "MEAN_MOTION_DOT": 3.077e-05,
    "MEAN_MOTION_DDOT": 0.0,
    "TLE_LINE1": "1 59722U 24088Q   25315.31160237  .00003077  00000+0  11600-3 0  9993",
    "TLE_LINE2": "2 59722  53.1631 330.0692 0001451  94.4775 265.6392 15.30189363 85551",
    "COMMENT": "Grouped by shell and plane from TLE"
  },
  {
    "OBJECT_NAME": "STARLINK-31820",
    "OBJECT_ID": "24088T",
    "EPOCH": "2025-11-11T07:18:04.764384",
    "MEAN_MOTION": 15.30194817,
    "ECCENTRICITY": 0.0001492,
    "INCLINATION": 53.1626,
    "RA_OF_ASC_NODE": 330.0222,
    "ARG_OF_PERICENTER": 86.0967,
    "MEAN_ANOMALY": 274.0204,
    "EPHEMERIS_TYPE": 0,
    "CLASSIFICATION_TYPE": "U",
    "NORAD_CAT_ID": 59725,
    "ELEMENT_SET_NO": 999,
    "REV_AT_EPOCH": 8555,
    "BSTAR": 0.00010323,
    "MEAN_MOTION_DOT": 2.699e-05,
    "MEAN_MOTION_DDOT": 0.0,
    "TLE_LINE1": "1 59725U 24088T   25315.30422181  .00002699  00000+0  10323-3 0  9994",
    "TLE_LINE2": "2 59725  53.1626 330.0222 0001492  86.0967 274.0204 15.30194817 85558",
    "COMMENT": "Grouped by shell and plane from TLE"
  },
  {
    "OBJECT_NAME": "STARLINK-31642",
    "OBJECT_ID": "24088U",
    "EPOCH": "2025-11-11T07:24:09.302400",
    "MEAN_MOTION": 15.30187109,
    "ECCENTRICITY": 0.0001519,
    "INCLINATION": 53.1617,
    "RA_OF_ASC_NODE": 330.049,
    "ARG_OF_PERICENTER": 89.8401,
    "MEAN_ANOMALY": 270.2774,
    "EPHEMERIS_TYPE": 0,
    "CLASSIFICATION_TYPE": "U",
    "NORAD_CAT_ID": 59726,
    "ELEMENT_SET_NO": 999,
    "REV_AT_EPOCH": 8555,
    "BSTAR": 0.00016339000000000002,
    "MEAN_MOTION_DOT": 4.481e-05,
    "MEAN_MOTION_DDOT": 0.0,
    "TLE_LINE1": "1 59726U 24088U   25315.30844100  .00004481  00000+0  16339-3 0  9998",
    "TLE_LINE2": "2 59726  53.1617 330.0490 0001519  89.8401 270.2774 15.30187109 85556",
    "COMMENT": "Grouped by shell and plane from TLE"
  },
  {
    "OBJECT_NAME": "STARLINK-31827",
    "OBJECT_ID": "24088V",
    "EPOCH": "2025-11-11T07:33:17.138880",
    "MEAN_MOTION": 15.30176567,
    "ECCENTRICITY": 0.0001412,
    "INCLINATION": 53.1616,
    "RA_OF_ASC_NODE": 330.0852,
    "ARG_OF_PERICENTER": 88.6773,
    "MEAN_ANOMALY": 271.439,
    "EPHEMERIS_TYPE": 0,
    "CLASSIFICATION_TYPE": "U",
    "NORAD_CAT_ID": 59727,
    "ELEMENT_SET_NO": 999,
    "REV_AT_EPOCH": 8567,
    "BSTAR": 0.0,
    "MEAN_MOTION_DOT": -3.139e-05,
    "MEAN_MOTION_DDOT": 0.0,
    "TLE_LINE1": "1 59727U 24088V   25315.31478170 -.00003139  00000+0 -93949-4 0  9994",
    "TLE_LINE2": "2 59727  53.1616 330.0852 0001412  88.6773 271.4390 15.30176567 85675",
    "COMMENT": "Grouped by shell and plane from TLE"
  },
  {
    "OBJECT_NAME": "STARLINK-32139",
    "OBJECT_ID": "24183B",
    "EPOCH": "2025-11-11T06:53:07.096416",
    "MEAN_MOTION": 15.30177497,
    "ECCENTRICITY": 0.0001219,
    "INCLINATION": 53.1618,
    "RA_OF_ASC_NODE": 332.4801,
    "ARG_OF_PERICENTER": 83.1448,
    "MEAN_ANOMALY": 276.9692,
    "EPHEMERIS_TYPE": 0,
    "CLASSIFICATION_TYPE": "U",
    "NORAD_CAT_ID": 61510,
    "ELEMENT_SET_NO": 999,
    "REV_AT_EPOCH": 6152,
    "BSTAR": 4.4243e-05,
    "MEAN_MOTION_DOT": 9.51e-06,
    "MEAN_MOTION_DDOT": 0.0,
    "TLE_LINE1": "1 61510U 24183B   25315.28688769  .00000951  00000+0  44243-4 0  9996",
    "TLE_LINE2": "2 61510  53.1618 332.4801 0001219  83.1448 276.9692 15.30177497 61520",
    "COMMENT": "Grouped by shell and plane from TLE"
  },
  {
    "OBJECT_NAME": "STARLINK-32140",
    "OBJECT_ID": "24183C",
    "EPOCH": "2025-11-11T06:28:46.891488",
    "MEAN_MOTION": 15.30209329,
    "ECCENTRICITY": 0.0001366,
    "INCLINATION": 53.1599,
    "RA_OF_ASC_NODE": 332.3746,
    "ARG_OF_PERICENTER": 97.5832,
    "MEAN_ANOMALY": 262.5324,
    "EPHEMERIS_TYPE": 0,
    "CLASSIFICATION_TYPE": "U",
    "NORAD_CAT_ID": 61511,
    "ELEMENT_SET_NO": 999,
    "REV_AT_EPOCH": 6152,
    "BSTAR": 0.00017011,
    "MEAN_MOTION_DOT": 4.683e-05,
    "MEAN_MOTION_DDOT": 0.0,
    "TLE_LINE1": "1 61511U 24183C   25315.26998717  .00004683  00000+0  17011-3 0  9990",
    "TLE_LINE2": "2 61511  53.1599 332.3746 0001366  97.5832 262.5324 15.30209329 61528",
    "COMMENT": "Grouped by shell and plane from TLE"
  },
  {
    "OBJECT_NAME": "STARLINK-32030",
    "OBJECT_ID": "24183E",
    "EPOCH": "2025-11-11T07:02:13.469280",
    "MEAN_MOTION": 15.30189145,
    "ECCENTRICITY": 0.0001513,
    "INCLINATION": 53.1616,
    "RA_OF_ASC_NODE": 332.5197,
    "ARG_OF_PERICENTER": 106.3779,
    "MEAN_ANOMALY": 253.7388,
    "EPHEMERIS_TYPE": 0,
    "CLASSIFICATION_TYPE": "U",
    "NORAD_CAT_ID": 61513,
    "ELEMENT_SET_NO": 999,
    "REV_AT_EPOCH": 6152,
    "BSTAR": 7.785800000000001e-05,
    "MEAN_MOTION_DOT": 1.947e-05,
    "MEAN_MOTION_DDOT": 0.0,
    "TLE_LINE1": "1 61513U 24183E   25315.29321145  .00001947  00000+0  77858-4 0  9996",
    "TLE_LINE2": "2 61513  53.1616 332.5197 0001513 106.3779 253.7388 15.30189145 61520",
    "COMMENT": "Grouped by shell and plane from TLE"
  }
]